{"type": "FeatureCollection", "features": [ {"type": "Feature", "properties": {"norad_id": 66506, "name": "STARLINK-34765", "group": "last-30-days", "lat": -39.12152263465903, "lon": -12.894250229048145, "alt_km": 415.04510076418774, "timestamp": "2025-12-15T22:44:27.659263+00:00", "meta": {"OBJECT_NAME": "STARLINK-34765", "OBJECT_ID": "2025-263X", "EPOCH": "2025-12-15T01:35:15.251136", "MEAN_MOTION": 15.51062947, "ECCENTRICITY": 0.00037368, "INCLINATION": 42.9981, "RA_OF_ASC_NODE": 111.4764, "ARG_OF_PERICENTER": 300.7166, "MEAN_ANOMALY": 59.3326, "EPHEMERIS_TYPE": 0, "CLASSIFICATION_TYPE": "U", "NORAD_CAT_ID": 66506, "ELEMENT_SET_NO": 999, "REV_AT_EPOCH": 592, "BSTAR": 0.0015196471, "MEAN_MOTION_DOT": 0.0009144, "MEAN_MOTION_DDOT": 0}, "tle": {"line1": "1 66506U 25263X   25349.06614874  .00091440  00000+0  15196-2 0  9991", "line2": "2 66506  42.9981 111.4764 0003736 300.7166  59.3326 15.51062947  5928"}}, "geometry": {"type": "Point", "coordinates": [-12.894250229048145, -39.12152263465903]}}, {"type": "Feature", "properties": {"norad_id": 66507, "name": "STARLINK-34767", "group": "last-30-days", "lat": 40.1564425437287, "lon": -138.23381512634282, "alt_km": 438.46431621763895, "timestamp": "2025-12-15T22:44:27.659273+00:00", "meta": {"OBJECT_NAME": "STARLINK-34767", "OBJECT_ID": "2025-263Y", "EPOCH": "2025-12-15T08:00:01.999872", "MEAN_MOTION": 15.40674121, "ECCENTRICITY": 0.00014378, "INCLINATION": 43.0002, "RA_OF_ASC_NODE": 110.1918, "ARG_OF_PERICENTER": 266.7682, "MEAN_ANOMALY": 31.4825, "EPHEMERIS_TYPE": 0, "CLASSIFICATION_TYPE": "U", "NORAD_CAT_ID": 66507, "ELEMENT_SET_NO": 999, "REV_AT_EPOCH": 605, "BSTAR": 0.001265802, "MEAN_MOTION_DOT": 0.00052894, "MEAN_MOTION_DDOT": 0}, "tle": {"line1": "1 66507U 25263Y   25349.33335648  .00052894  00000+0  12658-2 0  9991", "line2": "2 66507  43.0002 110.1918 0001437 266.7682  31.4825 15.40674121  6053"}}, "geometry": {"type": "Point", "coordinates": [-138.23381512634282, 40.1564425437287]}}, {"type": "Feature", "properties": {"norad_id": 66508, "name": "STARLINK-35608", "group": "last-30-days", "lat": 14.311874965198761, "lon": -89.35691127778334, "alt_km": 441.861866896169, "timestamp": "2025-12-15T22:44:27.659283+00:00", "meta": {"OBJECT_NAME": "STARLINK-35608", "OBJECT_ID": "2025-263Z", "EPOCH": "2025-12-15T08:00:01.999872", "MEAN_MOTION": 15.40678977, "ECCENTRICITY": 0.0001396, "INCLINATION": 43.0003, "RA_OF_ASC_NODE": 110.0721, "ARG_OF_PERICENTER": 258.6574, "MEAN_ANOMALY": 89.3491, "EPHEMERIS_TYPE": 0, "CLASSIFICATION_TYPE": "U", "NORAD_CAT_ID": 66508, "ELEMENT_SET_NO": 999, "REV_AT_EPOCH": 605, "BSTAR": 0.0013298118, "MEAN_MOTION_DOT": 0.00055613, "MEAN_MOTION_DDOT": 0}, "tle": {"line1": "1 66508U 25263Z   25349.33335648  .00055613  00000+0  13298-2 0  9995", "line2": "2 66508  43.0003 110.0721 0001396 258.6574  89.3491 15.40678977  6054"}}, "geometry": {"type": "Point", "coordinates": [-89.35691127778334, 14.311874965198761]}}, {"type": "Feature", "properties": {"norad_id": 66509, "name": "STARLINK-35598", "group": "last-30-days", "lat": -42.15285774530817, "lon": 2.587292022542467, "alt_km": 417.0600554241855, "timestamp": "2025-12-15T22:44:27.659294+00:00", "meta": {"OBJECT_NAME": "STARLINK-35598", "OBJECT_ID": "2025-263AA", "EPOCH": "2025-12-14T08:31:08.436000", "MEAN_MOTION": 15.50307356, "ECCENTRICITY": 0.00024598, "INCLINATION": 42.9963, "RA_OF_ASC_NODE": 115.5964, "ARG_OF_PERICENTER": 212.5604, "MEAN_ANOMALY": 147.5105, "EPHEMERIS_TYPE": 0, "CLASSIFICATION_TYPE": "U", "NORAD_CAT_ID": 66509, "ELEMENT_SET_NO": 999, "REV_AT_EPOCH": 581, "BSTAR": 0.0014213788, "MEAN_MOTION_DOT": 0.0008313, "MEAN_MOTION_DDOT": 0}, "tle": {"line1": "1 66509U 25263AA  25348.35495875  .00083130  00000+0  14214-2 0  9990", "line2": "2 66509  42.9963 115.5964 0002459 212.5604 147.5105 15.50307356  5814"}}, "geometry": {"type": "Point", "coordinates": [2.587292022542467, -42.15285774530817]}}, {"type": "Feature", "properties": {"norad_id": 66510, "name": "STARLINK-35600", "group": "last-30-days", "lat": -38.38711156275598, "lon": -15.453402379176032, "alt_km": 424.4153769839868, "timestamp": "2025-12-15T22:44:27.659310+00:00", "meta": {"OBJECT_NAME": "STARLINK-35600", "OBJECT_ID": "2025-263AB", "EPOCH": "2025-12-15T04:39:06.159456", "MEAN_MOTION": 15.48294226, "ECCENTRICITY": 0.00027466, "INCLINATION": 43.0007, "RA_OF_ASC_NODE": 110.7125, "ARG_OF_PERICENTER": 259.6453, "MEAN_ANOMALY": 100.4097, "EPHEMERIS_TYPE": 0, "CLASSIFICATION_TYPE": "U", "NORAD_CAT_ID": 66510, "ELEMENT_SET_NO": 999, "REV_AT_EPOCH": 594, "BSTAR": -0.0056122837, "MEAN_MOTION_DOT": -0.00292969, "MEAN_MOTION_DDOT": 0}, "tle": {"line1": "1 66510U 25263AB  25349.19382129 -.00292969  00000+0 -56123-2 0  9991", "line2": "2 66510  43.0007 110.7125 0002746 259.6453 100.4097 15.48294226  5946"}}, "geometry": {"type": "Point", "coordinates": [-15.453402379176032, -38.38711156275598]}}, {"type": "Feature", "properties": {"norad_id": 66511, "name": "STARLINK-35444", "group": "last-30-days", "lat": -42.10852322539541, "lon": 2.18076539645131, "alt_km": 416.87999608990776, "timestamp": "2025-12-15T22:44:27.659320+00:00", "meta": {"OBJECT_NAME": "STARLINK-35444", "OBJECT_ID": "2025-263AC", "EPOCH": "2025-12-15T09:15:34.614720", "MEAN_MOTION": 15.50603088, "ECCENTRICITY": 0.00017085, "INCLINATION": 43.0026, "RA_OF_ASC_NODE": 109.5715, "ARG_OF_PERICENTER": 269.8581, "MEAN_ANOMALY": 90.2084, "EPHEMERIS_TYPE": 0, "CLASSIFICATION_TYPE": "U", "NORAD_CAT_ID": 66511, "ELEMENT_SET_NO": 999, "REV_AT_EPOCH": 597, "BSTAR": 0.0015410502, "MEAN_MOTION_DOT": 0.00091203, "MEAN_MOTION_DDOT": 0}, "tle": {"line1": "1 66511U 25263AC  25349.38581730  .00091203  00000+0  15411-2 0  9993", "line2": "2 66511  43.0026 109.5715 0001708 269.8581  90.2084 15.50603088  5979"}}, "geometry": {"type": "Point", "coordinates": [2.18076539645131, -42.10852322539541]}}, {"type": "Feature", "properties": {"norad_id": 66512, "name": "STARLINK-35366", "group": "last-30-days", "lat": -42.62691228487406, "lon": 7.276554678664823, "alt_km": 417.65020886348975, "timestamp": "2025-12-15T22:44:27.659330+00:00", "meta": {"OBJECT_NAME": "STARLINK-35366", "OBJECT_ID": "2025-263AD", "EPOCH": "2025-12-15T09:14:35.367648", "MEAN_MOTION": 15.50611449, "ECCENTRICITY": 8.527e-05, "INCLINATION": 43.0009, "RA_OF_ASC_NODE": 109.5634, "ARG_OF_PERICENTER": 294.2045, "MEAN_ANOMALY": 65.8726, "EPHEMERIS_TYPE": 0, "CLASSIFICATION_TYPE": "U", "NORAD_CAT_ID": 66512, "ELEMENT_SET_NO": 999, "REV_AT_EPOCH": 597, "BSTAR": 0.00086941158, "MEAN_MOTION_DOT": 0.00051054, "MEAN_MOTION_DDOT": 0}, "tle": {"line1": "1 66512U 25263AD  25349.38513157  .00051054  00000+0  86941-3 0  9999", "line2": "2 66512  43.0009 109.5634 0000852 294.2045  65.8726 15.50611449  5978"}}, "geometry": {"type": "Point", "coordinates": [7.276554678664823, -42.62691228487406]}}, {"type": "Feature", "properties": {"norad_id": 66513, "name": "STARLINK-35692", "group": "last-30-days", "lat": -41.75929833207681, "lon": -0.36068070916862616, "alt_km": 416.6507001202408, "timestamp": "2025-12-15T22:44:27.659340+00:00", "meta": {"OBJECT_NAME": "STARLINK-35692", "OBJECT_ID": "2025-263AE", "EPOCH": "2025-12-15T09:16:04.196352", "MEAN_MOTION": 15.50599007, "ECCENTRICITY": 0.00020557, "INCLINATION": 43.0016, "RA_OF_ASC_NODE": 109.5746, "ARG_OF_PERICENTER": 266.535, "MEAN_ANOMALY": 93.5275, "EPHEMERIS_TYPE": 0, "CLASSIFICATION_TYPE": "U", "NORAD_CAT_ID": 66513, "ELEMENT_SET_NO": 999, "REV_AT_EPOCH": 597, "BSTAR": 0.0014943296, "MEAN_MOTION_DOT": 0.00088384, "MEAN_MOTION_DDOT": 0}, "tle": {"line1": "1 66513U 25263AE  25349.38615968  .00088384  00000+0  14943-2 0  9991", "line2": "2 66513  43.0016 109.5746 0002055 266.5350  93.5275 15.50599007  5971"}}, "geometry": {"type": "Point", "coordinates": [-0.36068070916862616, -41.75929833207681]}}, {"type": "Feature", "properties": {"norad_id": 66514, "name": "SENTINEL-6B", "group": "last-30-days", "lat": 42.79745746802171, "lon": -48.54478859441981, "alt_km": 1335.4347116476956, "timestamp": "2025-12-15T22:44:27.659351+00:00", "meta": {"OBJECT_NAME": "SENTINEL-6B", "OBJECT_ID": "2025-264A", "EPOCH": "2025-12-12T06:01:21.430272", "MEAN_MOTION": 12.81479576, "ECCENTRICITY": 0.0007847, "INCLINATION": 66.0385, "RA_OF_ASC_NODE": 163.4531, "ARG_OF_PERICENTER": 270.1745, "MEAN_ANOMALY": 89.8371, "EPHEMERIS_TYPE": 0, "CLASSIFICATION_TYPE": "U", "NORAD_CAT_ID": 66514, "ELEMENT_SET_NO": 999, "REV_AT_EPOCH": 322, "BSTAR": 0.00018864317, "MEAN_MOTION_DOT": -1.7e-07, "MEAN_MOTION_DDOT": 0}, "tle": {"line1": "1 66514U 25264A   25346.25094248 -.00000017  00000+0  18864-3 0  9993", "line2": "2 66514  66.0385 163.4531 0007847 270.1745  89.8371 12.81479576  3220"}}, "geometry": {"type": "Point", "coordinates": [-48.54478859441981, 42.79745746802171]}}, {"type": "Feature", "properties": {"norad_id": 66516, "name": "STARLINK-35924", "group": "last-30-days", "lat": -42.97088101800547, "lon": -52.89947743744224, "alt_km": 446.37743028272143, "timestamp": "2025-12-15T22:44:27.659361+00:00", "meta": {"OBJECT_NAME": "STARLINK-35924", "OBJECT_ID": "2025-265A", "EPOCH": "2025-12-15T08:00:01.999872", "MEAN_MOTION": 15.40681971, "ECCENTRICITY": 0.00015364, "INCLINATION": 43.0005, "RA_OF_ASC_NODE": 39.1751, "ARG_OF_PERICENTER": 261.6608, "MEAN_ANOMALY": 198.7898, "EPHEMERIS_TYPE": 0, "CLASSIFICATION_TYPE": "U", "NORAD_CAT_ID": 66516, "ELEMENT_SET_NO": 999, "REV_AT_EPOCH": 539, "BSTAR": 0.00034081959, "MEAN_MOTION_DOT": 0.00013951, "MEAN_MOTION_DDOT": 0}, "tle": {"line1": "1 66516U 25265A   25349.33335648  .00013951  00000+0  34082-3 0  9990", "line2": "2 66516  43.0005  39.1751 0001536 261.6608 198.7898 15.40681971  5397"}}, "geometry": {"type": "Point", "coordinates": [-52.89947743744224, -42.97088101800547]}}]}